IRIDIUM 116             
1 43072U 17083C   25019.92800090 -.00000302  00000+0 -11499-3 0  9993
2 43072  86.4012 176.5239 0002184  93.1148 267.0298 14.34213587370601
IRIDIUM 130             
1 43073U 17083D   25019.96605400  .00000697  00000+0  24173-3 0  9994
2 43073  86.4012 176.7324 0002076  97.5787 262.5645 14.34216094370552
IRIDIUM 151             
1 43074U 17083E   25019.94068431  .00000180  00000+0  57226-4 0  9993
2 43074  86.4009 176.5643 0002130  90.6580 269.4860 14.34218341370571
IRIDIUM 134             
1 43075U 17083F   25020.46711899  .00000180  00000+0  57296-4 0  9993
2 43075  86.4009 176.3454 0002126  95.8166 264.3272 14.34217419370613
IRIDIUM 137             
1 43076U 17083G   25019.92165775  .00000146  00000+0  45152-4 0  9999
2 43076  86.4010 176.6554 0002519  87.3267 272.8217 14.34217191370603
IRIDIUM 141             
1 43077U 17083H   25019.91531348  .00000706  00000+0  24488-3 0  9992
2 43077  86.4005 176.5181 0001617  94.3627 265.7753 14.34218262370605
IRIDIUM 153             
1 43078U 17083J   25019.86748741  .00000456  00000+0  15578-3 0  9996
2 43078  86.4012 145.0658 0001324  97.9877 262.1469 14.34215731371700
IRIDIUM 131             
1 43079U 17083K   25019.90262754  .00000279  00000+0  92493-4 0  9992
2 43079  86.4009 176.6750 0001961  89.5417 270.6003 14.34219203370530
